start=new Date('2023-01-13T00:00:00.000Z').valueOf();
sats=[{"TLE_LINE2":"2 51863  53.2154 141.6885 0002763  38.2451 321.8737 15.08840817 49162","MEAN_MOTION_DDOT":"0.0000000000000","APOAPSIS":"541.654","MEAN_ANOMALY":"321.8737","PERIOD":"95.438","REF_FRAME":"TEME","MEAN_MOTION_DOT":"-0.00000472","SITE":"AFETR","ELEMENT_SET_NO":"999","EPHEMERIS_TYPE":"0","RCS_SIZE":"MEDIUM","TLE_LINE1":"1 51863U 22022M   23012.46033786 -.00000472  00000-0 -11539-4 0  9994","RA_OF_ASC_NODE":"141.6885","DECAY_DATE":null,"BSTAR":"-0.00001153900000","CLASSIFICATION_TYPE":"U","LAUNCH_DATE":"2022-03-03","INCLINATION":"53.2154","REV_AT_EPOCH":"4916","TIME_SYSTEM":"UTC","ECCENTRICITY":"0.00027630","EPOCH":"2023-01-12T11:02:53.191104","MEAN_ELEMENT_THEORY":"SGP4","OBJECT_ID":"2022-022M","GP_ID":"222890301","MEAN_MOTION":"15.08840817","SEMIMAJOR_AXIS":"6917.878","PERIAPSIS":"537.831","OBJECT_TYPE":"PAYLOAD","NORAD_CAT_ID":"51863","FILE":"3742227","CENTER_NAME":"EARTH","COUNTRY_CODE":"US","ARG_OF_PERICENTER":"38.2451","OBJECT_NAME":"STARLINK-3555"},{"SITE":"AFETR","ELEMENT_SET_NO":"999","REF_FRAME":"TEME","MEAN_MOTION_DOT":"-0.00000469","MEAN_MOTION_DDOT":"0.0000000000000","MEAN_ANOMALY":"329.6592","APOAPSIS":"541.645","PERIOD":"95.438","TLE_LINE2":"2 51864  53.2185 141.6404 0002696  30.4556 329.6592 15.08828743 49214","DECAY_DATE":null,"BSTAR":"-0.00001134200000","RA_OF_ASC_NODE":"141.6404","TLE_LINE1":"1 51864U 22022N   23012.47139123 -.00000469  00000-0 -11342-4 0  9996","EPHEMERIS_TYPE":"0","RCS_SIZE":"LARGE","EPOCH":"2023-01-12T11:18:48.202272","MEAN_ELEMENT_THEORY":"SGP4","OBJECT_ID":"2022-022N","ECCENTRICITY":"0.00026960","TIME_SYSTEM":"UTC","CLASSIFICATION_TYPE":"U","INCLINATION":"53.2185","LAUNCH_DATE":"2022-03-03","REV_AT_EPOCH":"4921","COUNTRY_CODE":"US","ARG_OF_PERICENTER":"30.4556","OBJECT_NAME":"STARLINK-3548","OBJECT_TYPE":"PAYLOAD","NORAD_CAT_ID":"51864","FILE":"3742227","CENTER_NAME":"EARTH","MEAN_MOTION":"15.08828743","SEMIMAJOR_AXIS":"6917.915","PERIAPSIS":"537.915","GP_ID":"222890551"},{"MEAN_ANOMALY":"309.2245","APOAPSIS":"541.825","PERIOD":"95.438","MEAN_MOTION_DDOT":"0.0000000000000","TLE_LINE2":"2 51865  53.2139 140.2316 0002992  50.9013 309.2245 15.08836739 49218","ELEMENT_SET_NO":"999","SITE":"AFETR","MEAN_MOTION_DOT":"-0.00000207","REF_FRAME":"TEME","TLE_LINE1":"1 51865U 22022P   23012.78419610 -.00000207  00000-0  51400-5 0  9992","RCS_SIZE":"LARGE","EPHEMERIS_TYPE":"0","BSTAR":"0.00000514000000","DECAY_DATE":null,"RA_OF_ASC_NODE":"140.2316","REV_AT_EPOCH":"4921","LAUNCH_DATE":"2022-03-03","INCLINATION":"53.2139","CLASSIFICATION_TYPE":"U","OBJECT_ID":"2022-022P","EPOCH":"2023-01-12T18:49:14.543040","MEAN_ELEMENT_THEORY":"SGP4","ECCENTRICITY":"0.00029920","TIME_SYSTEM":"UTC","PERIAPSIS":"537.686","SEMIMAJOR_AXIS":"6917.890","MEAN_MOTION":"15.08836739","GP_ID":"222890803","OBJECT_NAME":"STARLINK-3503","ARG_OF_PERICENTER":"50.9013","COUNTRY_CODE":"US","CENTER_NAME":"EARTH","FILE":"3742227","NORAD_CAT_ID":"51865","OBJECT_TYPE":"PAYLOAD"},{"EPHEMERIS_TYPE":"0","RCS_SIZE":"LARGE","TLE_LINE1":"1 51866U 22022Q   23012.46404178  .00000218  00000-0  31812-4 0  9996","RA_OF_ASC_NODE":"141.6645","DECAY_DATE":null,"BSTAR":"0.00003181200000","TLE_LINE2":"2 51866  53.2166 141.6645 0003065  47.8722 312.2530 15.08831558 49162","MEAN_MOTION_DDOT":"0.0000000000000","MEAN_ANOMALY":"312.2530","APOAPSIS":"541.892","PERIOD":"95.438","REF_FRAME":"TEME","MEAN_MOTION_DOT":"0.00000218","SITE":"AFETR","ELEMENT_SET_NO":"999","GP_ID":"222891050","SEMIMAJOR_AXIS":"6917.906","MEAN_MOTION":"15.08831558","PERIAPSIS":"537.651","OBJECT_TYPE":"PAYLOAD","FILE":"3742227","NORAD_CAT_ID":"51866","CENTER_NAME":"EARTH","COUNTRY_CODE":"US","ARG_OF_PERICENTER":"47.8722","OBJECT_NAME":"STARLINK-3553","CLASSIFICATION_TYPE":"U","LAUNCH_DATE":"2022-03-03","REV_AT_EPOCH":"4916","INCLINATION":"53.2166","TIME_SYSTEM":"UTC","ECCENTRICITY":"0.00030650","EPOCH":"2023-01-12T11:08:13.209792","MEAN_ELEMENT_THEORY":"SGP4","OBJECT_ID":"2022-022Q"},{"GP_ID":"222864674","MEAN_MOTION":"15.08809324","SEMIMAJOR_AXIS":"6917.974","PERIAPSIS":"537.248","CENTER_NAME":"EARTH","OBJECT_TYPE":"PAYLOAD","FILE":"3742109","NORAD_CAT_ID":"51867","OBJECT_NAME":"STARLINK-3590","COUNTRY_CODE":"US","ARG_OF_PERICENTER":"53.1843","CLASSIFICATION_TYPE":"U","INCLINATION":"53.2171","LAUNCH_DATE":"2022-03-03","REV_AT_EPOCH":"4925","ECCENTRICITY":"0.00037450","TIME_SYSTEM":"UTC","MEAN_ELEMENT_THEORY":"SGP4","EPOCH":"2023-01-13T01:05:30.453504","OBJECT_ID":"2022-022R","EPHEMERIS_TYPE":"0","RCS_SIZE":"LARGE","TLE_LINE1":"1 51867U 22022R   23013.04549136 -.00001328  00000-0 -65361-4 0  9997","RA_OF_ASC_NODE":"139.0511","BSTAR":"-0.00006536100000","DECAY_DATE":null,"TLE_LINE2":"2 51867  53.2171 139.0511 0003745  53.1843 306.9493 15.08809324 49255","MEAN_ANOMALY":"306.9493","APOAPSIS":"542.430","PERIOD":"95.439","MEAN_MOTION_DDOT":"0.0000000000000","MEAN_MOTION_DOT":"-0.00001328","REF_FRAME":"TEME","ELEMENT_SET_NO":"999","SITE":"AFETR"},{"TIME_SYSTEM":"UTC","ECCENTRICITY":"0.00020540","OBJECT_ID":"2022-022S","MEAN_ELEMENT_THEORY":"SGP4","EPOCH":"2023-01-12T18:54:32.793984","REV_AT_EPOCH":"4921","LAUNCH_DATE":"2022-03-03","INCLINATION":"53.2142","CLASSIFICATION_TYPE":"U","CENTER_NAME":"EARTH","FILE":"3742227","NORAD_CAT_ID":"51868","OBJECT_TYPE":"PAYLOAD","OBJECT_NAME":"STARLINK-3578","ARG_OF_PERICENTER":"72.0663","COUNTRY_CODE":"US","GP_ID":"222890052","PERIAPSIS":"538.333","SEMIMAJOR_AXIS":"6917.889","MEAN_MOTION":"15.08837260","MEAN_MOTION_DOT":"-0.00000301","REF_FRAME":"TEME","ELEMENT_SET_NO":"999","SITE":"AFETR","TLE_LINE2":"2 51868  53.2142 140.2083 0002054  72.0663 288.0553 15.08837260 49217","APOAPSIS":"541.175","MEAN_ANOMALY":"288.0553","PERIOD":"95.438","MEAN_MOTION_DDOT":"0.0000000000000","RA_OF_ASC_NODE":"140.2083","BSTAR":"-0.00000082040000","DECAY_DATE":null,"RCS_SIZE":"LARGE","EPHEMERIS_TYPE":"0","TLE_LINE1":"1 51868U 22022S   23012.78787956 -.00000301  00000-0 -82040-6 0  9997"},{"DECAY_DATE":null,"BSTAR":"0.00014651000000","RA_OF_ASC_NODE":"139.1093","TLE_LINE1":"1 51869U 22022T   23013.03444315  .00002044  00000-0  14651-3 0  9990","RCS_SIZE":"LARGE","EPHEMERIS_TYPE":"0","SITE":"AFETR","ELEMENT_SET_NO":"999","REF_FRAME":"TEME","MEAN_MOTION_DOT":"0.00002044","MEAN_MOTION_DDOT":"0.0000000000000","APOAPSIS":"541.601","PERIOD":"95.438","MEAN_ANOMALY":"305.1761","TLE_LINE2":"2 51869  53.2122 139.1093 0002639  54.9479 305.1761 15.08830353 49259","ARG_OF_PERICENTER":"54.9479","COUNTRY_CODE":"US","OBJECT_NAME":"STARLINK-3588","NORAD_CAT_ID":"51869","FILE":"3742051","OBJECT_TYPE":"PAYLOAD","CENTER_NAME":"EARTH","PERIAPSIS":"537.949","SEMIMAJOR_AXIS":"6917.910","MEAN_MOTION":"15.08830353","GP_ID":"222863427","OBJECT_ID":"2022-022T","MEAN_ELEMENT_THEORY":"SGP4","EPOCH":"2023-01-13T00:49:35.888160","ECCENTRICITY":"0.00026390","TIME_SYSTEM":"UTC","LAUNCH_DATE":"2022-03-03","INCLINATION":"53.2122","REV_AT_EPOCH":"4925","CLASSIFICATION_TYPE":"U"},{"COUNTRY_CODE":"US","ARG_OF_PERICENTER":"43.4370","OBJECT_NAME":"STARLINK-3591","OBJECT_TYPE":"PAYLOAD","NORAD_CAT_ID":"51870","FILE":"3742227","CENTER_NAME":"EARTH","MEAN_MOTION":"15.08837639","SEMIMAJOR_AXIS":"6917.888","PERIAPSIS":"537.821","GP_ID":"222891550","EPOCH":"2023-01-12T17:03:15.269760","MEAN_ELEMENT_THEORY":"SGP4","OBJECT_ID":"2022-022U","TIME_SYSTEM":"UTC","ECCENTRICITY":"0.00027920","CLASSIFICATION_TYPE":"U","REV_AT_EPOCH":"4925","LAUNCH_DATE":"2022-03-03","INCLINATION":"53.2156","DECAY_DATE":null,"BSTAR":"0.00008577900000","RA_OF_ASC_NODE":"140.5556","TLE_LINE1":"1 51870U 22022U   23012.71059340  .00001077  00000-0  85779-4 0  9991","EPHEMERIS_TYPE":"0","RCS_SIZE":"LARGE","SITE":"AFETR","ELEMENT_SET_NO":"999","REF_FRAME":"TEME","MEAN_MOTION_DOT":"0.00001077","MEAN_MOTION_DDOT":"0.0000000000000","APOAPSIS":"541.684","PERIOD":"95.438","MEAN_ANOMALY":"316.6841","TLE_LINE2":"2 51870  53.2156 140.5556 0002792  43.4370 316.6841 15.08837639 49251"},{"ECCENTRICITY":"0.00024040","TIME_SYSTEM":"UTC","OBJECT_ID":"2022-022V","MEAN_ELEMENT_THEORY":"SGP4","EPOCH":"2023-01-12T15:11:59.105472","INCLINATION":"53.2160","LAUNCH_DATE":"2022-03-03","REV_AT_EPOCH":"4930","CLASSIFICATION_TYPE":"U","CENTER_NAME":"EARTH","NORAD_CAT_ID":"51871","FILE":"3742227","OBJECT_TYPE":"PAYLOAD","OBJECT_NAME":"STARLINK-3567","ARG_OF_PERICENTER":"29.8113","COUNTRY_CODE":"US","GP_ID":"222890302","PERIAPSIS":"538.178","MEAN_MOTION":"15.08808559","SEMIMAJOR_AXIS":"6917.976","MEAN_MOTION_DOT":"-0.00005110","REF_FRAME":"TEME","ELEMENT_SET_NO":"999","SITE":"AFETR","TLE_LINE2":"2 51871  53.2160 140.9131 0002404  29.8113 330.3016 15.08808559 49305","PERIOD":"95.440","APOAPSIS":"541.505","MEAN_ANOMALY":"330.3016","MEAN_MOTION_DDOT":"0.0000000000000","RA_OF_ASC_NODE":"140.9131","BSTAR":"-0.00030340000000","DECAY_DATE":null,"RCS_SIZE":"LARGE","EPHEMERIS_TYPE":"0","TLE_LINE1":"1 51871U 22022V   23012.63332298 -.00005110  00000-0 -30340-3 0  9996"},{"OBJECT_TYPE":"PAYLOAD","NORAD_CAT_ID":"51872","FILE":"3742227","CENTER_NAME":"EARTH","COUNTRY_CODE":"US","ARG_OF_PERICENTER":"35.0519","OBJECT_NAME":"STARLINK-3554","GP_ID":"222890552","MEAN_MOTION":"15.08846945","SEMIMAJOR_AXIS":"6917.859","PERIAPSIS":"537.908","ECCENTRICITY":"0.00026260","TIME_SYSTEM":"UTC","MEAN_ELEMENT_THEORY":"SGP4","EPOCH":"2023-01-12T15:22:32.678400","OBJECT_ID":"2022-022W","CLASSIFICATION_TYPE":"U","REV_AT_EPOCH":"4919","LAUNCH_DATE":"2022-03-03","INCLINATION":"53.2152","RA_OF_ASC_NODE":"140.8854","DECAY_DATE":null,"BSTAR":"0.00015811000000","EPHEMERIS_TYPE":"0","RCS_SIZE":"LARGE","TLE_LINE1":"1 51872U 22022W   23012.64065600  .00002229  00000-0  15811-3 0  9990","REF_FRAME":"TEME","MEAN_MOTION_DOT":"0.00002229","SITE":"AFETR","ELEMENT_SET_NO":"999","TLE_LINE2":"2 51872  53.2152 140.8854 0002626  35.0519 325.0646 15.08846945 49191","MEAN_MOTION_DDOT":"0.0000000000000","APOAPSIS":"541.541","PERIOD":"95.437","MEAN_ANOMALY":"325.0646"}];
